NORAD_CAT_ID,OBJECT_NAME,OBJECT_TYPE,EPOCH,MEAN_MOTION,ECCENTRICITY,INCLINATION,RA_OF_ASC_NODE,ARG_OF_PERICENTER,MEAN_ANOMALY,BSTAR,MEAN_MOTION_DOT,MEAN_MOTION_DDOT,TLE_LINE0,TLE_LINE1,TLE_LINE2,SEMIMAJOR_AXIS,PERIOD,APOGEE,PERIGEE,DECAYED
50808.0,STARLINK-3355,PAYLOAD,2022-10-08 10:42:39,15.08834146,0.0001793,53.2192,2.7026,51.7209,308.3944,-1.3505e-05,-5.03e-06,0.0,0 STARLINK-3355,1 50808U 22001F   22281.44628522 -.00000503  00000-0 -13505-4 0  9992,2 50808  53.2192   2.7026 0001793  51.7209 308.3944 15.08834146 43352,6917.898,95.438,541.004,538.523,0.0
50808.0,STARLINK-3355,PAYLOAD,2022-10-08 12:18:02,15.08835121,0.0001809,53.2193,2.4057,51.9152,308.2004,-6.6647e-06,-3.94e-06,0.0,0 STARLINK-3355,1 50808U 22001F   22281.51252467 -.00000394  00000-0 -66647-5 0  9995,2 50808  53.2193   2.4057 0001809  51.9152 308.2004 15.08835121 42114,6917.895,95.438,541.012,538.509,0.0
50808.0,STARLINK-3355,PAYLOAD,2022-10-08 13:53:24,15.08839378,0.0001662,53.219,2.1078,54.4421,305.6726,3.3669e-05,2.48e-06,0.0,0 STARLINK-3355,1 50808U 22001F   22281.57876138  .00000248  00000-0  33669-4 0  9991,2 50808  53.2190   2.1078 0001662  54.4421 305.6726 15.08839378 42126,6917.882,95.438,540.8969999999998,538.5980000000002,0.0
50808.0,STARLINK-3355,PAYLOAD,2022-10-09 12:08:48,15.08850402,0.0001931,53.2185,357.9473,43.6823,316.4322,0.0001498,2.097e-05,0.0,0 STARLINK-3355,1 50808U 22001F   22282.50611454  .00002097  00000-0  14980-3 0  9991,2 50808  53.2185 357.9473 0001931  43.6823 316.4322 15.08850402 42263,6917.849,95.437,541.049,538.378,0.0
50808.0,STARLINK-3355,PAYLOAD,2022-10-09 13:44:11,15.08852278,0.0001943,53.2186,357.6497,44.4147,315.7001,0.0001882,2.709e-05,0.0,0 STARLINK-3355,1 50808U 22001F   22282.57235361  .00002709  00000-0  18820-3 0  9994,2 50808  53.2186 357.6497 0001943  44.4147 315.7001 15.08852278 42278,6917.843000000003,95.437,541.052,538.364,0.0
50808.0,STARLINK-3355,PAYLOAD,2022-10-10 11:59:35,15.0884262,0.0001766,53.2181,353.487,44.9521,315.1614,8.3574e-06,-1.55e-06,0.0,0 STARLINK-3355,1 50808U 22001F   22283.49971434 -.00000155  00000-0  83574-5 0  9998,2 50808  53.2181 353.4870 0001766  44.9521 315.1614 15.08842620 43664,6917.871999999999,95.437,540.9590000000002,538.516,0.0
50808.0,STARLINK-3355,PAYLOAD,2022-10-11 03:53:27,15.0883022,0.0001634,53.2191,350.5141,61.4301,298.6855,-2.7328e-06,-3.31e-06,0.0,0 STARLINK-3355,1 50808U 22001F   22284.16212446 -.00000331  00000-0 -27328-5 0  9996,2 50808  53.2191 350.5141 0001634  61.4301 298.6855 15.08830220 43764,6917.91,95.438,540.906,538.645,0.0
50808.0,STARLINK-3355,PAYLOAD,2022-10-11 11:50:24,15.08823464,0.0001730999999999,53.2186,349.0262,42.0079,318.1046,-0.0001991,-3.454e-05,0.0,0 STARLINK-3355,1 50808U 22001F   22284.49333851 -.00003454  00000-0 -19910-3 0  9991,2 50808  53.2186 349.0262 0001731  42.0079 318.1046 15.08823464 42569,6917.931,95.439,540.993,538.5980000000002,0.0
50808.0,STARLINK-3355,PAYLOAD,2022-10-11 13:25:47,15.08826139,0.0001720999999999,53.2185,348.7287,41.2197,318.8925,-0.0001747,-3.066e-05,0.0,0 STARLINK-3355,1 50808U 22001F   22284.55957658 -.00003066  00000-0 -17470-3 0  9993,2 50808  53.2185 348.7287 0001721  41.2197 318.8925 15.08826139 42578,6917.9230000000025,95.438,540.9780000000002,538.597,0.0
50808.0,STARLINK-3355,PAYLOAD,2022-10-12 11:41:11,15.08830025,0.0001739,53.2185,344.5655,43.9617,316.1513,1.938e-05,2e-07,0.0,0 STARLINK-3355,1 50808U 22001F   22285.48693472  .00000020  00000-0  19380-4 0  9995,2 50808  53.2185 344.5655 0001739  43.9617 316.1513 15.08830025 43963,6917.911,95.438,540.979,538.573,0.0
50808.0,STARLINK-3355,PAYLOAD,2022-10-12 13:16:34,15.088300699999998,0.0001766999999999,53.2184,344.2682,43.3566,316.7565,2.5166e-05,1.12e-06,0.0,0 STARLINK-3355,1 50808U 22001F   22285.55317516  .00000112  00000-0  25166-4 0  9996,2 50808  53.2184 344.2682 0001767  43.3566 316.7565 15.08830070 42723,6917.911,95.438,540.998,538.553,0.0
50808.0,STARLINK-3355,PAYLOAD,2022-10-13 11:31:58,15.08825969,0.0001804,53.2184,340.1052,42.38,317.7331,0.00024796,3.659e-05,0.0,0 STARLINK-3355,1 50808U 22001F   22286.48054044  .00003659  00000-0  24796-3 0  9999,2 50808  53.2184 340.1052 0001804  42.3800 317.7331 15.08825969 42869,6917.9230000000025,95.438,541.036,538.54,0.0
50808.0,STARLINK-3355,PAYLOAD,2022-10-13 21:04:16,15.08841203,0.0001962,53.2184,338.3214,41.1791,318.9349,0.00026896,3.995e-05,0.0,0 STARLINK-3355,1 50808U 22001F   22286.87797292  .00003995  00000-0  26896-3 0  9997,2 50808  53.2184 338.3214 0001962  41.1791 318.9349 15.08841203 44176,6917.877,95.437,541.099,538.384,0.0
50808.0,STARLINK-3355,PAYLOAD,2022-10-14 11:22:45,15.08837541,0.000199,53.2188,335.6453,42.5476,317.567,0.00010566,1.394e-05,0.0,0 STARLINK-3355,1 50808U 22001F   22287.47414058  .00001394  00000-0  10566-3 0  9998,2 50808  53.2188 335.6453 0001990  42.5476 317.5670 15.08837541 43015,6917.888000000001,95.438,541.13,538.376,0.0
50808.0,STARLINK-3355,PAYLOAD,2022-10-14 20:55:04,15.08846062,0.0002283,53.2189,333.8633,37.9737,322.1416,0.00013015,1.784e-05,0.0,0 STARLINK-3355,1 50808U 22001F   22287.87157432  .00001784  00000-0  13015-3 0  9997,2 50808  53.2189 333.8633 0002283  37.9737 322.1416 15.08846062 44323,6917.861999999999,95.437,541.306,538.148,0.0
50808.0,STARLINK-3355,PAYLOAD,2022-10-15 12:48:54,15.08850559,0.0001892,53.2179,330.8863,47.5406,312.5746,0.00010812,1.433e-05,0.0,0 STARLINK-3355,1 50808U 22001F   22288.53396768  .00001433  00000-0  10812-3 0  9991,2 50808  53.2179 330.8863 0001892  47.5406 312.5746 15.08850559 43176,6917.848000000001,95.437,541.0219999999998,538.404,0.0
50808.0,STARLINK-3355,PAYLOAD,2022-10-16 03:07:23,15.08844277,0.0001810999999999,53.2177,328.2089,46.34,313.7742,2.4325e-05,9.9e-07,0.0,0 STARLINK-3355,1 50808U 22001F   22289.13013000  .00000099  00000-0  24325-4 0  9995,2 50808  53.2177 328.2089 0001811  46.3400 313.7742 15.08844277 44515,6917.8669999999975,95.437,540.985,538.479,0.0
50808.0,STARLINK-3355,PAYLOAD,2022-10-16 09:28:56,15.08838313,0.0002005,53.2177,327.0206,40.767,319.3472,-2.6632e-05,-7.12e-06,0.0,0 STARLINK-3355,1 50808U 22001F   22289.39509512 -.00000712  00000-0 -26632-4 0  9998,2 50808  53.2177 327.0206 0002005  40.7670 319.3472 15.08838313 44556,6917.886,95.438,541.138,538.364,0.0
50808.0,STARLINK-3355,PAYLOAD,2022-10-16 11:04:19,15.08834175,0.0002121999999999,53.2181,326.7236,42.1357,317.9798,2.626800000000001e-05,1.3e-06,0.0,0 STARLINK-3355,1 50808U 22001F   22289.46133608  .00000130  00000-0  26268-4 0  9992,2 50808  53.2181 326.7236 0002122  42.1357 317.9798 15.08834175 43318,6917.898,95.438,541.231,538.295,0.0
50808.0,STARLINK-3355,PAYLOAD,2022-10-16 19:01:16,15.08809429,0.0002078,53.2173,325.2368,45.2124,314.9037,0.00021091,3.067e-05,0.0,0 STARLINK-3355,1 50808U 22001F   22289.79254911  .00003067  00000-0  21091-3 0  9999,2 50808  53.2173 325.2368 0002078  45.2124 314.9037 15.08809429 43367,6917.974,95.439,541.276,538.401,0.0
50808.0,STARLINK-3355,PAYLOAD,2022-10-17 09:19:44,15.08830835,0.0002176,53.217,322.5605,46.7774,313.34,-7.9224e-05,-1.549e-05,0.0,0 STARLINK-3355,1 50808U 22001F   22290.38870532 -.00001549  00000-0 -79224-4 0  9996,2 50808  53.2170 322.5605 0002176  46.7774 313.3400 15.08830835 44705,6917.908,95.438,541.279,538.268,0.0
50808.0,STARLINK-3355,PAYLOAD,2022-10-17 10:55:07,15.08828967,0.0002165,53.2184,322.2632,38.1639,321.9506,-0.00011958,-2.19e-05,0.0,0 STARLINK-3355,1 50808U 22001F   22290.45494827 -.00002190  00000-0 -11958-3 0  9995,2 50808  53.2184 322.2632 0002165  38.1639 321.9506 15.08828967 43467,6917.9140000000025,95.438,541.2769999999998,538.281,0.0
50808.0,STARLINK-3355,PAYLOAD,2022-10-18 07:35:07,15.08832465,0.0002091,53.2173,318.3986,42.7148,317.4006,7.4276e-05,8.94e-06,0.0,0 STARLINK-3355,1 50808U 22001F   22291.31606383  .00000894  00000-0  74276-4 0  9993,2 50808  53.2173 318.3986 0002091  42.7148 317.4006 15.08832465 44843,6917.903,95.438,541.215,538.322,0.0
50808.0,STARLINK-3355,PAYLOAD,2022-10-18 10:45:54,15.08831506,0.0002171,53.2172,317.8037,42.4126,317.7033,9.2843e-05,1.189e-05,0.0,0 STARLINK-3355,1 50808U 22001F   22291.44854465  .00001189  00000-0  92843-4 0  9991,2 50808  53.2172 317.8037 0002171  42.4126 317.7033 15.08831506 43617,6917.906,95.438,541.273,538.269,0.0
50808.0,STARLINK-3355,PAYLOAD,2022-10-18 18:42:51,15.08817247,0.0002552,53.2195,316.3145,43.1211,316.9981,0.00010252,1.343e-05,0.0,0 STARLINK-3355,1 50808U 22001F   22291.77975751  .00001343  00000-0  10252-3 0  9994,2 50808  53.2195 316.3145 0002552  43.1211 316.9981 15.08817247 43666,6917.95,95.439,541.58,538.049,0.0
50808.0,STARLINK-3355,PAYLOAD,2022-10-19 09:01:20,15.08818321,0.0002213,53.2175,313.6408,39.04,321.0751,-1.2684e-05,-4.9000000000000005e-06,0.0,0 STARLINK-3355,1 50808U 22001F   22292.37592790 -.00000490  00000-0 -12684-4 0  9995,2 50808  53.2175 313.6408 0002213  39.0400 321.0751 15.08818321 43750,6917.946999999999,95.439,541.3430000000002,538.281,0.0
50808.0,STARLINK-3355,PAYLOAD,2022-10-20 00:55:11,15.08833173,0.000233,53.2184,310.666,41.9424,318.1746,2.0243000000000003e-06,-2.56e-06,0.0,0 STARLINK-3355,1 50808U 22001F   22293.03832517 -.00000256  00000-0  20243-5 0  9993,2 50808  53.2184 310.6660 0002330  41.9424 318.1746 15.08833173 45109,6917.901,95.438,541.378,538.154,0.0
50808.0,STARLINK-3355,PAYLOAD,2022-10-20 08:52:06,15.0883699,0.0002343999999999,53.2178,309.1807,39.786,320.3304,6.369399999999999e-05,7.25e-06,0.0,0 STARLINK-3355,1 50808U 22001F   22293.36952174  .00000725  00000-0  63694-4 0  9997,2 50808  53.2178 309.1807 0002344  39.7860 320.3304 15.08836990 43903,6917.89,95.438,541.376,538.133,0.0
50808.0,STARLINK-3355,PAYLOAD,2022-10-20 18:24:25,15.08837173,0.0002301,53.2177,307.3962,41.8322,318.2846,0.0002126999999999,3.098e-05,0.0,0 STARLINK-3355,1 50808U 22001F   22293.76695779  .00003098  00000-0  21270-3 0  9995,2 50808  53.2177 307.3962 0002301  41.8322 318.2846 15.08837173 43961,6917.889,95.438,541.346,538.1619999999998,0.0
